{"type": "FeatureCollection", "features": [ {"type": "Feature", "properties": {"norad_id": 66052, "name": "HRC MONOBLOCK CAMERA", "group": "stations", "lat": 48.07793280216178, "lon": -119.96192802295995, "alt_km": 397.3535213794157, "timestamp": "2025-12-16T15:45:49.752931+00:00", "meta": {"OBJECT_NAME": "HRC MONOBLOCK CAMERA", "OBJECT_ID": "1998-067XR", "EPOCH": "2025-12-15T22:19:37.394688", "MEAN_MOTION": 15.54370373, "ECCENTRICITY": 0.00028854, "INCLINATION": 51.6289, "RA_OF_ASC_NODE": 125.5959, "ARG_OF_PERICENTER": 198.9504, "MEAN_ANOMALY": 161.1379, "EPHEMERIS_TYPE": 0, "CLASSIFICATION_TYPE": "U", "NORAD_CAT_ID": 66052, "ELEMENT_SET_NO": 999, "REV_AT_EPOCH": 933, "BSTAR": 0.00046656817, "MEAN_MOTION_DOT": 0.00030802, "MEAN_MOTION_DDOT": 0}, "tle": {"line1": "1 66052U 98067XR  25349.93029392  .00030802  00000+0  46657-3 0  9992", "line2": "2 66052  51.6289 125.5959 0002885 198.9504 161.1379 15.54370373  9338"}}, "geometry": {"type": "Point", "coordinates": [-119.96192802295995, 48.07793280216178]}}, {"type": "Feature", "properties": {"norad_id": 66174, "name": "HTV-X1", "group": "stations", "lat": -45.29960267058076, "lon": 69.89063629807112, "alt_km": 420.54867654355803, "timestamp": "2025-12-16T15:45:49.752941+00:00", "meta": {"OBJECT_NAME": "HTV-X1", "OBJECT_ID": "2025-241A", "EPOCH": "2025-12-15T21:28:14.919168", "MEAN_MOTION": 15.49611341, "ECCENTRICITY": 0.0003169, "INCLINATION": 51.6305, "RA_OF_ASC_NODE": 126.8563, "ARG_OF_PERICENTER": 254.4589, "MEAN_ANOMALY": 105.605, "EPHEMERIS_TYPE": 0, "CLASSIFICATION_TYPE": "U", "NORAD_CAT_ID": 66174, "ELEMENT_SET_NO": 999, "REV_AT_EPOCH": 51, "BSTAR": 0.00012896231, "MEAN_MOTION_DOT": 6.813e-05, "MEAN_MOTION_DDOT": 0}, "tle": {"line1": "1 66174U 25241A   25349.89461712  .00006813  00000+0  12896-3 0  9995", "line2": "2 66174  51.6305 126.8563 0003169 254.4589 105.6050 15.49611341   511"}}, "geometry": {"type": "Point", "coordinates": [69.89063629807112, -45.29960267058076]}}, {"type": "Feature", "properties": {"norad_id": 66515, "name": "SZ-21 MODULE", "group": "stations", "lat": 17.449871168102128, "lon": 151.3018072849992, "alt_km": 379.62833093847075, "timestamp": "2025-12-16T15:45:49.752954+00:00", "meta": {"OBJECT_NAME": "SZ-21 MODULE", "OBJECT_ID": "2025-246C", "EPOCH": "2025-12-15T17:38:17.166624", "MEAN_MOTION": 15.62644262, "ECCENTRICITY": 0.00061674, "INCLINATION": 41.4776, "RA_OF_ASC_NODE": 357.7735, "ARG_OF_PERICENTER": 275.8419, "MEAN_ANOMALY": 84.1717, "EPHEMERIS_TYPE": 0, "CLASSIFICATION_TYPE": "U", "NORAD_CAT_ID": 66515, "ELEMENT_SET_NO": 999, "REV_AT_EPOCH": 491, "BSTAR": 0.00022577355, "MEAN_MOTION_DOT": 0.00020523, "MEAN_MOTION_DDOT": 0}, "tle": {"line1": "1 66515U 25246C   25349.73492091  .00020523  00000+0  22577-3 0  9997", "line2": "2 66515  41.4776 357.7735 0006167 275.8419  84.1717 15.62644262  4917"}}, "geometry": {"type": "Point", "coordinates": [151.3018072849992, 17.449871168102128]}}, {"type": "Feature", "properties": {"norad_id": 66645, "name": "SHENZHOU-22", "group": "stations", "lat": -11.677286794319855, "lon": -173.5430789118763, "alt_km": 394.3286349948421, "timestamp": "2025-12-16T15:45:49.752964+00:00", "meta": {"OBJECT_NAME": "SHENZHOU-22", "OBJECT_ID": "2025-272A", "EPOCH": "2025-12-15T17:24:02.570400", "MEAN_MOTION": 15.59304358, "ECCENTRICITY": 0.00079014, "INCLINATION": 41.4685, "RA_OF_ASC_NODE": 358.5824, "ARG_OF_PERICENTER": 56.1338, "MEAN_ANOMALY": 304.0252, "EPHEMERIS_TYPE": 0, "CLASSIFICATION_TYPE": "U", "NORAD_CAT_ID": 66645, "ELEMENT_SET_NO": 999, "REV_AT_EPOCH": 26357, "BSTAR": 0.00018266576, "MEAN_MOTION_DOT": 0.00014504, "MEAN_MOTION_DDOT": 0}, "tle": {"line1": "1 66645U 25272A   25349.72502975  .00014504  00000+0  18267-3 0  9995", "line2": "2 66645  41.4685 358.5824 0007901  56.1338 304.0252 15.59304358263577"}}, "geometry": {"type": "Point", "coordinates": [-173.5430789118763, -11.677286794319855]}}, {"type": "Feature", "properties": {"norad_id": 66664, "name": "SOYUZ-MS 28", "group": "stations", "lat": -45.29960167040817, "lon": 69.89063896920212, "alt_km": 420.5486765570913, "timestamp": "2025-12-16T15:45:49.752974+00:00", "meta": {"OBJECT_NAME": "SOYUZ-MS 28", "OBJECT_ID": "2025-275A", "EPOCH": "2025-12-15T21:28:14.919168", "MEAN_MOTION": 15.49611341, "ECCENTRICITY": 0.0003169, "INCLINATION": 51.6305, "RA_OF_ASC_NODE": 126.8563, "ARG_OF_PERICENTER": 254.4589, "MEAN_ANOMALY": 105.605, "EPHEMERIS_TYPE": 0, "CLASSIFICATION_TYPE": "U", "NORAD_CAT_ID": 66664, "ELEMENT_SET_NO": 999, "REV_AT_EPOCH": 128, "BSTAR": 0.00012896231, "MEAN_MOTION_DOT": 6.813e-05, "MEAN_MOTION_DDOT": 0}, "tle": {"line1": "1 66664U 25275A   25349.89461712  .00006813  00000+0  12896-3 0  9996", "line2": "2 66664  51.6305 126.8563 0003169 254.4589 105.6050 15.49611341  1280"}}, "geometry": {"type": "Point", "coordinates": [69.89063896920212, -45.29960167040817]}}, {"type": "Feature", "properties": {"norad_id": 66906, "name": "1998-067XS", "group": "stations", "lat": -15.681104453760815, "lon": 110.13589087039581, "alt_km": 418.1008241622267, "timestamp": "2025-12-16T15:45:49.752984+00:00", "meta": {"OBJECT_NAME": "1998-067XS", "OBJECT_ID": "1998-067XS", "EPOCH": "2025-12-15T16:39:04.886784", "MEAN_MOTION": 15.50732342, "ECCENTRICITY": 0.00032898, "INCLINATION": 51.6303, "RA_OF_ASC_NODE": 127.7667, "ARG_OF_PERICENTER": 216.5725, "MEAN_ANOMALY": 143.504, "EPHEMERIS_TYPE": 0, "CLASSIFICATION_TYPE": "U", "NORAD_CAT_ID": 66906, "ELEMENT_SET_NO": 999, "REV_AT_EPOCH": 207, "BSTAR": 0.00035286566, "MEAN_MOTION_DOT": 0.00020263, "MEAN_MOTION_DDOT": 0}, "tle": {"line1": "1 66906U 98067XS  25349.69380656  .00020263  00000+0  35287-3 0  9993", "line2": "2 66906  51.6303 127.7667 0003289 216.5725 143.5040 15.50732342  2071"}}, "geometry": {"type": "Point", "coordinates": [110.13589087039581, -15.681104453760815]}}, {"type": "Feature", "properties": {"norad_id": 66907, "name": "1998-067XT", "group": "stations", "lat": 7.534555763474774, "lon": 128.94033974998825, "alt_km": 412.28555633460564, "timestamp": "2025-12-16T15:45:49.752994+00:00", "meta": {"OBJECT_NAME": "1998-067XT", "OBJECT_ID": "1998-067XT", "EPOCH": "2025-12-15T19:37:52.461984", "MEAN_MOTION": 15.51845045, "ECCENTRICITY": 0.00041213, "INCLINATION": 51.6296, "RA_OF_ASC_NODE": 127.0953, "ARG_OF_PERICENTER": 244.2963, "MEAN_ANOMALY": 115.7601, "EPHEMERIS_TYPE": 0, "CLASSIFICATION_TYPE": "U", "NORAD_CAT_ID": 66907, "ELEMENT_SET_NO": 999, "REV_AT_EPOCH": 209, "BSTAR": 0.00082636885, "MEAN_MOTION_DOT": 0.0005023, "MEAN_MOTION_DDOT": 0}, "tle": {"line1": "1 66907U 98067XT  25349.81796831  .00050230  00000+0  82637-3 0  9992", "line2": "2 66907  51.6296 127.0953 0004121 244.2963 115.7601 15.51845045  2094"}}, "geometry": {"type": "Point", "coordinates": [128.94033974998825, 7.534555763474774]}}, {"type": "Feature", "properties": {"norad_id": 66908, "name": "1998-067XU", "group": "stations", "lat": 9.942943020491722, "lon": 130.90186925201738, "alt_km": 411.86770076281664, "timestamp": "2025-12-16T15:45:49.753004+00:00", "meta": {"OBJECT_NAME": "1998-067XU", "OBJECT_ID": "1998-067XU", "EPOCH": "2025-12-15T18:04:25.292064", "MEAN_MOTION": 15.51929885, "ECCENTRICITY": 0.00042378, "INCLINATION": 51.6291, "RA_OF_ASC_NODE": 127.4116, "ARG_OF_PERICENTER": 243.4196, "MEAN_ANOMALY": 116.636, "EPHEMERIS_TYPE": 0, "CLASSIFICATION_TYPE": "U", "NORAD_CAT_ID": 66908, "ELEMENT_SET_NO": 999, "REV_AT_EPOCH": 208, "BSTAR": 0.00081150303, "MEAN_MOTION_DOT": 0.00049466, "MEAN_MOTION_DDOT": 0}, "tle": {"line1": "1 66908U 98067XU  25349.75307051  .00049466  00000+0  81150-3 0  9996", "line2": "2 66908  51.6291 127.4116 0004237 243.4196 116.6360 15.51929885  2088"}}, "geometry": {"type": "Point", "coordinates": [130.90186925201738, 9.942943020491722]}}, {"type": "Feature", "properties": {"norad_id": 66909, "name": "SILVERSAT", "group": "stations", "lat": 12.789341083977977, "lon": 133.27156439405655, "alt_km": 411.11195951181344, "timestamp": "2025-12-16T15:45:49.753014+00:00", "meta": {"OBJECT_NAME": "SILVERSAT", "OBJECT_ID": "1998-067XV", "EPOCH": "2025-12-15T14:58:08.164704", "MEAN_MOTION": 15.52037636, "ECCENTRICITY": 0.00041166, "INCLINATION": 51.6296, "RA_OF_ASC_NODE": 128.048, "ARG_OF_PERICENTER": 244.867, "MEAN_ANOMALY": 115.1892, "EPHEMERIS_TYPE": 0, "CLASSIFICATION_TYPE": "U", "NORAD_CAT_ID": 66909, "ELEMENT_SET_NO": 999, "REV_AT_EPOCH": 206, "BSTAR": 0.00079995468, "MEAN_MOTION_DOT": 0.00048941, "MEAN_MOTION_DDOT": 0}, "tle": {"line1": "1 66909U 98067XV  25349.62370561  .00048941  00000+0  79995-3 0  9990", "line2": "2 66909  51.6296 128.0480 0004116 244.8670 115.1892 15.52037636  2060"}}, "geometry": {"type": "Point", "coordinates": [133.27156439405655, 12.789341083977977]}}, {"type": "Feature", "properties": {"norad_id": 66910, "name": "1998-067XW", "group": "stations", "lat": 20.13044383575804, "lon": 139.7740723575288, "alt_km": 411.0799817977786, "timestamp": "2025-12-16T15:45:49.753027+00:00", "meta": {"OBJECT_NAME": "1998-067XW", "OBJECT_ID": "1998-067XW", "EPOCH": "2025-12-15T16:28:26.170464", "MEAN_MOTION": 15.52120253, "ECCENTRICITY": 0.00047674, "INCLINATION": 51.6293, "RA_OF_ASC_NODE": 127.717, "ARG_OF_PERICENTER": 223.5527, "MEAN_ANOMALY": 136.5086, "EPHEMERIS_TYPE": 0, "CLASSIFICATION_TYPE": "U", "NORAD_CAT_ID": 66910, "ELEMENT_SET_NO": 999, "REV_AT_EPOCH": 207, "BSTAR": 0.00072313444, "MEAN_MOTION_DOT": 0.00044307, "MEAN_MOTION_DDOT": 0}, "tle": {"line1": "1 66910U 98067XW  25349.68641401  .00044307  00000+0  72313-3 0  9991", "line2": "2 66910  51.6293 127.7170 0004767 223.5527 136.5086 15.52120253  2079"}}, "geometry": {"type": "Point", "coordinates": [139.7740723575288, 20.13044383575804]}}]}